{
  "type": "FeatureCollection",
  "features": [
    {
      "type": "Feature",
      "properties": {
        "norad_id": 40376,
        "name": "SMAP",
        "group": "resource",
        "lat": 19.08338916612682,
        "lon": -177.77212568239557,
        "alt_km": 682.279561482841,
        "timestamp": "2025-12-20T18:51:31.375187+00:00",
        "meta_object_name": "SMAP",
        "meta_object_id": "2015-003A",
        "meta_epoch": "2025-12-20T13:12:14.884992",
        "meta_mean_motion": 14.63353928,
        "meta_eccentricity": 0.0001227,
        "meta_inclination": 98.1288,
        "meta_ra_of_asc_node": 359.1614,
        "meta_arg_of_pericenter": 91.4637,
        "meta_mean_anomaly": 268.6706,
        "meta_ephemeris_type": 0,
        "meta_classification_type": "U",
        "meta_norad_cat_id": 40376,
        "meta_element_set_no": 999,
        "meta_rev_at_epoch": 58149,
        "meta_bstar": 7.807262e-05,
        "meta_mean_motion_dot": 3.56e-06,
        "meta_mean_motion_ddot": 0,
        "tle_line1": "1 40376U 15003A   25354.55017228  .00000356  00000+0  78073-4 0  9990",
        "tle_line2": "2 40376  98.1288 359.1614 0001227  91.4637 268.6706 14.63353928581495"
      },
      "geometry": {
        "type": "Point",
        "coordinates": [
          -177.77212568239557,
          19.08338916612682
        ]
      }
    },
    {
      "type": "Feature",
      "properties": {
        "norad_id": 40536,
        "name": "KOMPSAT-3A",
        "group": "resource",
        "lat": 26.898785002353335,
        "lon": -34.34707352831019,
        "alt_km": 432.19239433488747,
        "timestamp": "2025-12-20T18:51:31.375197+00:00",
        "meta_object_name": "KOMPSAT-3A",
        "meta_object_id": "2015-014A",
        "meta_epoch": "2025-12-20T14:04:33.095424",
        "meta_mean_motion": 15.44213131,
        "meta_eccentricity": 0.00054422,
        "meta_inclination": 97.6793,
        "meta_ra_of_asc_node": 329.3676,
        "meta_arg_of_pericenter": 109.4268,
        "meta_mean_anomaly": 250.7568,
        "meta_ephemeris_type": 0,
        "meta_classification_type": "U",
        "meta_norad_cat_id": 40536,
        "meta_element_set_no": 999,
        "meta_rev_at_epoch": 59416,
        "meta_bstar": 0.00028526416,
        "meta_mean_motion_dot": 0.00013013,
        "meta_mean_motion_ddot": 0,
        "tle_line1": "1 40536U 15014A   25354.58649416  .00013013  00000+0  28526-3 0  9994",
        "tle_line2": "2 40536  97.6793 329.3676 0005442 109.4268 250.7568 15.44213131594165"
      },
      "geometry": {
        "type": "Point",
        "coordinates": [
          -34.34707352831019,
          26.898785002353335
        ]
      }
    },
    {
      "type": "Feature",
      "properties": {
        "norad_id": 40697,
        "name": "SENTINEL-2A",
        "group": "resource",
        "lat": 11.713611777527777,
        "lon": -111.00178209382922,
        "alt_km": 790.2006033426269,
        "timestamp": "2025-12-20T18:51:31.375207+00:00",
        "meta_object_name": "SENTINEL-2A",
        "meta_object_id": "2015-028A",
        "meta_epoch": "2025-12-20T14:43:09.544224",
        "meta_mean_motion": 14.3080909,
        "meta_eccentricity": 0.00010919,
        "meta_inclination": 98.5744,
        "meta_ra_of_asc_node": 67.0355,
        "meta_arg_of_pericenter": 86.9855,
        "meta_mean_anomaly": 273.1452,
        "meta_ephemeris_type": 0,
        "meta_classification_type": "U",
        "meta_norad_cat_id": 40697,
        "meta_element_set_no": 999,
        "meta_rev_at_epoch": 54819,
        "meta_bstar": 0.0001587783,
        "meta_mean_motion_dot": 3.72e-06,
        "meta_mean_motion_ddot": 0,
        "tle_line1": "1 40697U 15028A   25354.61330491  .00000372  00000+0  15878-3 0  9991",
        "tle_line2": "2 40697  98.5744  67.0355 0001091  86.9855 273.1452 14.30809090548198"
      },
      "geometry": {
        "type": "Point",
        "coordinates": [
          -111.00178209382922,
          11.713611777527777
        ]
      }
    },
    {
      "type": "Feature",
      "properties": {
        "norad_id": 40701,
        "name": "GAOFEN-8",
        "group": "resource",
        "lat": 81.19895604198699,
        "lon": 54.09774644767487,
        "alt_km": 434.37499617286903,
        "timestamp": "2025-12-20T18:51:31.375216+00:00",
        "meta_object_name": "GAOFEN-8",
        "meta_object_id": "2015-030A",
        "meta_epoch": "2025-12-20T13:46:08.283936",
        "meta_mean_motion": 15.38803356,
        "meta_eccentricity": 0.00119647,
        "meta_inclination": 97.69,
        "meta_ra_of_asc_node": 173.0969,
        "meta_arg_of_pericenter": 111.9566,
        "meta_mean_anomaly": 248.2951,
        "meta_ephemeris_type": 0,
        "meta_classification_type": "U",
        "meta_norad_cat_id": 40701,
        "meta_element_set_no": 999,
        "meta_rev_at_epoch": 58391,
        "meta_bstar": 0.00050208209,
        "meta_mean_motion_dot": 0.00019247,
        "meta_mean_motion_ddot": 0,
        "tle_line1": "1 40701U 15030A   25354.57370699  .00019247  00000+0  50208-3 0  9996",
        "tle_line2": "2 40701  97.6900 173.0969 0011964 111.9566 248.2951 15.38803356583919"
      },
      "geometry": {
        "type": "Point",
        "coordinates": [
          54.09774644767487,
          81.19895604198699
        ]
      }
    },
    {
      "type": "Feature",
      "properties": {
        "norad_id": 40718,
        "name": "CARBONITE 1 (CBNT-1)",
        "group": "resource",
        "lat": -28.278400999390353,
        "lon": -8.665713916448329,
        "alt_km": 620.1552244882168,
        "timestamp": "2025-12-20T18:51:31.375226+00:00",
        "meta_object_name": "CARBONITE 1 (CBNT-1)",
        "meta_object_id": "2015-032D",
        "meta_epoch": "2025-12-20T14:40:59.886336",
        "meta_mean_motion": 14.82780033,
        "meta_eccentricity": 0.00150085,
        "meta_inclination": 97.6395,
        "meta_ra_of_asc_node": 175.3087,
        "meta_arg_of_pericenter": 155.6409,
        "meta_mean_anomaly": 204.5518,
        "meta_ephemeris_type": 0,
        "meta_classification_type": "U",
        "meta_norad_cat_id": 40718,
        "meta_element_set_no": 999,
        "meta_rev_at_epoch": 56287,
        "meta_bstar": 0.00027929892,
        "meta_mean_motion_dot": 2.212e-05,
        "meta_mean_motion_ddot": 0,
        "tle_line1": "1 40718U 15032D   25354.61180424  .00002212  00000+0  27930-3 0  9996",
        "tle_line2": "2 40718  97.6395 175.3087 0015008 155.6409 204.5518 14.82780033562875"
      },
      "geometry": {
        "type": "Point",
        "coordinates": [
          -8.665713916448329,
          -28.278400999390353
        ]
      }
    },
    {
      "type": "Feature",
      "properties": {
        "norad_id": 40878,
        "name": "YAOGAN-27",
        "group": "resource",
        "lat": 53.053947885663845,
        "lon": 177.75115032050292,
        "alt_km": 1199.1817716409005,
        "timestamp": "2025-12-20T18:51:31.375236+00:00",
        "meta_object_name": "YAOGAN-27",
        "meta_object_id": "2015-040A",
        "meta_epoch": "2025-12-20T14:34:21.497664",
        "meta_mean_motion": 13.16059572,
        "meta_eccentricity": 0.00075837,
        "meta_inclination": 100.1006,
        "meta_ra_of_asc_node": 343.8713,
        "meta_arg_of_pericenter": 267.3129,
        "meta_mean_anomaly": 92.7116,
        "meta_ephemeris_type": 0,
        "meta_classification_type": "U",
        "meta_norad_cat_id": 40878,
        "meta_element_set_no": 999,
        "meta_rev_at_epoch": 49417,
        "meta_bstar": -0.001146553,
        "meta_mean_motion_dot": -4.78e-06,
        "meta_mean_motion_ddot": 0,
        "tle_line1": "1 40878U 15040A   25354.60719326 -.00000478  00000+0 -11466-2 0  9990",
        "tle_line2": "2 40878 100.1006 343.8713 0007583 267.3129  92.7116 13.16059572494179"
      },
      "geometry": {
        "type": "Point",
        "coordinates": [
          177.75115032050292,
          53.053947885663845
        ]
      }
    },
    {
      "type": "Feature",
      "properties": {
        "norad_id": 40894,
        "name": "GAOFEN-9 01",
        "group": "resource",
        "lat": 59.22907272949441,
        "lon": -133.55505095158156,
        "alt_km": 622.9657629807407,
        "timestamp": "2025-12-20T18:51:31.375246+00:00",
        "meta_object_name": "GAOFEN-9 01",
        "meta_object_id": "2015-047A",
        "meta_epoch": "2025-12-20T15:04:53.988096",
        "meta_mean_motion": 14.82439831,
        "meta_eccentricity": 0.00277531,
        "meta_inclination": 97.6532,
        "meta_ra_of_asc_node": 33.2429,
        "meta_arg_of_pericenter": 8.9382,
        "meta_mean_anomaly": 351.2321,
        "meta_ephemeris_type": 0,
        "meta_classification_type": "U",
        "meta_norad_cat_id": 40894,
        "meta_element_set_no": 999,
        "meta_rev_at_epoch": 55373,
        "meta_bstar": 0.0001015485,
        "meta_mean_motion_dot": 7.68e-06,
        "meta_mean_motion_ddot": 0,
        "tle_line1": "1 40894U 15047A   25354.62840264  .00000768  00000+0  10155-3 0  9998",
        "tle_line2": "2 40894  97.6532  33.2429 0027753   8.9382 351.2321 14.82439831553739"
      },
      "geometry": {
        "type": "Point",
        "coordinates": [
          -133.55505095158156,
          59.22907272949441
        ]
      }
    }
  ]
}